{
    "links": {
        "self": "http://www.neowsapp.com/rest/v1/neo/3550610?api_key=iIulBulltgU6a56xZRHN4H3l9WmuAYTsLGpBGhQ2"
    },
    "id": "3550610",
    "neo_reference_id": "3550610",
    "name": "(2010 VR21)",
    "designation": "2010 VR21",
    "nasa_jpl_url": "http://ssd.jpl.nasa.gov/sbdb.cgi?sstr=3550610",
    "absolute_magnitude_h": 29.255,
    "estimated_diameter": {
        "kilometers": {
            "estimated_diameter_min": 0.0037458896,
            "estimated_diameter_max": 0.0083760638
        },
        "meters": {
            "estimated_diameter_min": 3.7458896262,
            "estimated_diameter_max": 8.3760638404
        },
        "miles": {
            "estimated_diameter_min": 0.0023275872,
            "estimated_diameter_max": 0.0052046432
        },
        "feet": {
            "estimated_diameter_min": 12.2896645212,
            "estimated_diameter_max": 27.4805252902
        }
    },
    "is_potentially_hazardous_asteroid": false,
    "close_approach_data": [
        {
            "close_approach_date": "2010-11-07",
            "close_approach_date_full": "2010-Nov-07 23:11",
            "epoch_date_close_approach": 1289171460000,
            "relative_velocity": {
                "kilometers_per_second": "14.2518070652",
                "kilometers_per_hour": "51306.5054346217",
                "miles_per_hour": "31879.8672240848"
            },
            "miss_distance": {
                "astronomical": "0.0023753093",
                "lunar": "0.9239953177",
                "kilometers": "355341.211871191",
                "miles": "220798.7904807958"
            },
            "orbiting_body": "Earth"
        },
        {
            "close_approach_date": "2010-11-08",
            "close_approach_date_full": "2010-Nov-08 03:44",
            "epoch_date_close_approach": 1289187840000,
            "relative_velocity": {
                "kilometers_per_second": "14.9679039288",
                "kilometers_per_hour": "53884.4541436746",
                "miles_per_hour": "33481.7042983294"
            },
            "miss_distance": {
                "astronomical": "0.0039626523",
                "lunar": "1.5414717447",
                "kilometers": "592804.343630601",
                "miles": "368351.5384442538"
            },
            "orbiting_body": "Moon"
        }
    ],
    "orbital_data": {
        "orbit_id": "8",
        "orbit_determination_date": "2017-04-06 08:55:53",
        "first_observation_date": "2010-11-06",
        "last_observation_date": "2010-11-07",
        "data_arc_in_days": 1,
        "observations_used": 16,
        "orbit_uncertainty": "8",
        "minimum_orbit_intersection": ".00149864",
        "jupiter_tisserand_invariant": "3.187",
        "epoch_osculation": "2455506.5",
        "eccentricity": ".656532464430691",
        "semi_major_axis": "2.407349529793159",
        "inclination": ".8918178988938921",
        "ascending_node_longitude": "219.8509184332795",
        "orbital_period": "1364.291438593404",
        "perihelion_distance": ".8268464102519909",
        "perihelion_argument": "240.0410949372185",
        "aphelion_distance": "3.987852649334326",
        "perihelion_time": "2455545.127450001206",
        "mean_anomaly": "349.8072496776999",
        "mean_motion": ".2638732383831148",
        "equinox": "J2000",
        "orbit_class": {
            "orbit_class_type": "APO",
            "orbit_class_description": "Near-Earth asteroid orbits which cross the Earth’s orbit similar to that of 1862 Apollo",
            "orbit_class_range": "a (semi-major axis) > 1.0 AU; q (perihelion) < 1.017 AU"
        }
    },
    "is_sentry_object": false
}